start=new Date('2022-05-23T00:00:00.000Z').valueOf();
sats=[{"CLASSIFICATION_TYPE":"U","PERIAPSIS":"574.871","REF_FRAME":"TEME","RCS_SIZE":"LARGE","REV_AT_EPOCH":"3876","FILE":"3459192","MEAN_MOTION_DOT":"0.00067281","COUNTRY_CODE":"US","TLE_LINE2":"2 49143  69.9998 170.3935 0003318 269.1382 177.8982 14.96675424 38761","RA_OF_ASC_NODE":"170.3935","EPHEMERIS_TYPE":"0","LAUNCH_DATE":"2021-09-14","OBJECT_TYPE":"PAYLOAD","PERIOD":"96.213","MEAN_MOTION_DDOT":"0.0000000000000","ECCENTRICITY":"0.00033180","MEAN_ELEMENT_THEORY":"SGP4","ARG_OF_PERICENTER":"269.1382","EPOCH":"2022-05-22T22:00:01.999584","INCLINATION":"69.9998","OBJECT_ID":"2021-082P","GP_ID":"204257201","CENTER_NAME":"EARTH","SITE":"AFWTR","TLE_LINE1":"1 49143U 21082P   22142.91668981  .00067281  00000-0  58357-2 0  9997","MEAN_MOTION":"14.96675424","NORAD_CAT_ID":"49143","TIME_SYSTEM":"UTC","SEMIMAJOR_AXIS":"6955.314","ELEMENT_SET_NO":"999","DECAY_DATE":null,"APOAPSIS":"579.487","BSTAR":"0.00583570000000","MEAN_ANOMALY":"177.8982","OBJECT_NAME":"STARLINK-3109"},{"OBJECT_ID":"2021-082Q","CENTER_NAME":"EARTH","GP_ID":"204257704","TLE_LINE1":"1 49144U 21082Q   22142.91668981  .00026893  00000-0  22548-2 0  9995","SITE":"AFWTR","MEAN_MOTION":"14.98299156","TIME_SYSTEM":"UTC","NORAD_CAT_ID":"49144","SEMIMAJOR_AXIS":"6950.288","ELEMENT_SET_NO":"999","APOAPSIS":"574.335","DECAY_DATE":null,"BSTAR":"0.00225480000000","OBJECT_NAME":"STARLINK-3100","MEAN_ANOMALY":"187.7362","CLASSIFICATION_TYPE":"U","REF_FRAME":"TEME","PERIAPSIS":"569.972","TLE_LINE2":"2 49144  70.0010 191.0042 0003139 274.4081 187.7362 14.98299156 38257","COUNTRY_CODE":"US","RCS_SIZE":"LARGE","REV_AT_EPOCH":"3825","FILE":"3459192","MEAN_MOTION_DOT":"0.00026893","EPHEMERIS_TYPE":"0","RA_OF_ASC_NODE":"191.0042","OBJECT_TYPE":"PAYLOAD","PERIOD":"96.109","MEAN_MOTION_DDOT":"0.0000000000000","ECCENTRICITY":"0.00031390","LAUNCH_DATE":"2021-09-14","MEAN_ELEMENT_THEORY":"SGP4","ARG_OF_PERICENTER":"274.4081","EPOCH":"2022-05-22T22:00:01.999584","INCLINATION":"70.0010"},{"ARG_OF_PERICENTER":"271.2766","INCLINATION":"69.9987","EPOCH":"2022-05-22T22:00:01.999584","LAUNCH_DATE":"2021-09-14","OBJECT_TYPE":"PAYLOAD","PERIOD":"95.895","ECCENTRICITY":"0.00033620","MEAN_MOTION_DDOT":"0.0000000000000","MEAN_ELEMENT_THEORY":"SGP4","RCS_SIZE":"LARGE","FILE":"3459268","REV_AT_EPOCH":"130","MEAN_MOTION_DOT":"-0.00222531","TLE_LINE2":"2 49145  69.9987 150.2019 0003362 271.2766 135.6725 15.01640820  1306","COUNTRY_CODE":"US","RA_OF_ASC_NODE":"150.2019","EPHEMERIS_TYPE":"0","CLASSIFICATION_TYPE":"U","PERIAPSIS":"559.505","REF_FRAME":"TEME","SEMIMAJOR_AXIS":"6939.973","ELEMENT_SET_NO":"999","BSTAR":"-0.01764400000000","DECAY_DATE":null,"APOAPSIS":"564.171","OBJECT_NAME":"STARLINK-3119","MEAN_ANOMALY":"135.6725","MEAN_MOTION":"15.01640820","NORAD_CAT_ID":"49145","TIME_SYSTEM":"UTC","SITE":"AFWTR","TLE_LINE1":"1 49145U 21082R   22142.91668981 -.00222531  00000-0 -17644-1 0  9995","OBJECT_ID":"2021-082R","GP_ID":"204282148","CENTER_NAME":"EARTH"},{"APOAPSIS":"579.508","DECAY_DATE":null,"BSTAR":"0.00570840000000","MEAN_ANOMALY":"201.0102","OBJECT_NAME":"STARLINK-3116","SEMIMAJOR_AXIS":"6955.269","ELEMENT_SET_NO":"999","NORAD_CAT_ID":"49146","TIME_SYSTEM":"UTC","MEAN_MOTION":"14.96689965","SITE":"AFWTR","TLE_LINE1":"1 49146U 21082S   22142.91668981  .00065823  00000-0  57084-2 0  9996","GP_ID":"204282897","CENTER_NAME":"EARTH","OBJECT_ID":"2021-082S","INCLINATION":"69.9993","EPOCH":"2022-05-22T22:00:01.999584","ARG_OF_PERICENTER":"272.1894","MEAN_ELEMENT_THEORY":"SGP4","LAUNCH_DATE":"2021-09-14","OBJECT_TYPE":"PAYLOAD","ECCENTRICITY":"0.00034130","PERIOD":"96.212","MEAN_MOTION_DDOT":"0.0000000000000","RA_OF_ASC_NODE":"170.3866","EPHEMERIS_TYPE":"0","RCS_SIZE":"LARGE","FILE":"3459268","MEAN_MOTION_DOT":"0.00065823","REV_AT_EPOCH":"130","TLE_LINE2":"2 49146  69.9993 170.3866 0003413 272.1894 201.0102 14.96689965  1309","COUNTRY_CODE":"US","REF_FRAME":"TEME","PERIAPSIS":"574.760","CLASSIFICATION_TYPE":"U"},{"ARG_OF_PERICENTER":"276.7475","INCLINATION":"70.0000","EPOCH":"2022-05-22T22:00:01.999584","MEAN_MOTION_DDOT":"0.0000000000000","PERIOD":"95.963","ECCENTRICITY":"0.00033020","OBJECT_TYPE":"PAYLOAD","LAUNCH_DATE":"2021-09-14","MEAN_ELEMENT_THEORY":"SGP4","TLE_LINE2":"2 49147  70.0000 150.1398 0003302 276.7475 103.6062 15.00575465 40434","COUNTRY_CODE":"US","FILE":"3458878","MEAN_MOTION_DOT":"-0.00716627","REV_AT_EPOCH":"4043","RCS_SIZE":"LARGE","EPHEMERIS_TYPE":"0","RA_OF_ASC_NODE":"150.1398","CLASSIFICATION_TYPE":"U","PERIAPSIS":"562.830","REF_FRAME":"TEME","ELEMENT_SET_NO":"999","SEMIMAJOR_AXIS":"6943.258","MEAN_ANOMALY":"103.6062","OBJECT_NAME":"STARLINK-3071","BSTAR":"-0.06092300000000","DECAY_DATE":null,"APOAPSIS":"567.415","MEAN_MOTION":"15.00575465","TIME_SYSTEM":"UTC","NORAD_CAT_ID":"49147","TLE_LINE1":"1 49147U 21082T   22142.91668981 -.00716627  00000-0 -60923-1 0  9999","SITE":"AFWTR","OBJECT_ID":"2021-082T","CENTER_NAME":"EARTH","GP_ID":"204249415"},{"TLE_LINE1":"1 49148U 21082U   22142.91668981  .00066832  00000-0  57959-2 0  9990","SITE":"AFWTR","CENTER_NAME":"EARTH","GP_ID":"204282398","OBJECT_ID":"2021-082U","APOAPSIS":"579.491","DECAY_DATE":null,"BSTAR":"0.00579590000000","MEAN_ANOMALY":"228.3979","OBJECT_NAME":"STARLINK-3048","SEMIMAJOR_AXIS":"6955.288","ELEMENT_SET_NO":"999","TIME_SYSTEM":"UTC","NORAD_CAT_ID":"49148","MEAN_MOTION":"14.96683849","EPHEMERIS_TYPE":"0","RA_OF_ASC_NODE":"170.3870","TLE_LINE2":"2 49148  70.0002 170.3870 0003361 270.9572 228.3979 14.96683849  1300","COUNTRY_CODE":"US","RCS_SIZE":"LARGE","FILE":"3459268","REV_AT_EPOCH":"130","MEAN_MOTION_DOT":"0.00066832","PERIAPSIS":"574.815","REF_FRAME":"TEME","CLASSIFICATION_TYPE":"U","INCLINATION":"70.0002","EPOCH":"2022-05-22T22:00:01.999584","ARG_OF_PERICENTER":"270.9572","MEAN_ELEMENT_THEORY":"SGP4","OBJECT_TYPE":"PAYLOAD","ECCENTRICITY":"0.00033610","PERIOD":"96.213","MEAN_MOTION_DDOT":"0.0000000000000","LAUNCH_DATE":"2021-09-14"},{"MEAN_ANOMALY":"208.3116","OBJECT_NAME":"STARLINK-3053","BSTAR":"0.00345030000000","DECAY_DATE":null,"APOAPSIS":"574.365","ELEMENT_SET_NO":"999","SEMIMAJOR_AXIS":"6950.273","NORAD_CAT_ID":"49149","TIME_SYSTEM":"UTC","MEAN_MOTION":"14.98303960","SITE":"AFWTR","TLE_LINE1":"1 49149U 21082V   22142.91668981  .00041291  00000-0  34503-2 0  9993","GP_ID":"204245758","CENTER_NAME":"EARTH","OBJECT_ID":"2021-082V","INCLINATION":"69.9999","EPOCH":"2022-05-22T22:00:01.999584","ARG_OF_PERICENTER":"279.5765","MEAN_ELEMENT_THEORY":"SGP4","LAUNCH_DATE":"2021-09-14","MEAN_MOTION_DDOT":"0.0000000000000","PERIOD":"96.109","ECCENTRICITY":"0.00032030","OBJECT_TYPE":"PAYLOAD","RA_OF_ASC_NODE":"190.9880","EPHEMERIS_TYPE":"0","FILE":"3458749","REV_AT_EPOCH":"3946","MEAN_MOTION_DOT":"0.00041291","RCS_SIZE":"LARGE","COUNTRY_CODE":"US","TLE_LINE2":"2 49149  69.9999 190.9880 0003203 279.5765 208.3116 14.98303960 39460","REF_FRAME":"TEME","PERIAPSIS":"569.912","CLASSIFICATION_TYPE":"U"},{"DECAY_DATE":null,"BSTAR":"0.00291990000000","APOAPSIS":"574.391","OBJECT_NAME":"STARLINK-3104","MEAN_ANOMALY":"233.6984","SEMIMAJOR_AXIS":"6950.286","ELEMENT_SET_NO":"999","NORAD_CAT_ID":"49150","TIME_SYSTEM":"UTC","MEAN_MOTION":"14.98299759","SITE":"AFWTR","TLE_LINE1":"1 49150U 21082W   22142.91668981  .00034894  00000-0  29199-2 0  9991","GP_ID":"204283397","CENTER_NAME":"EARTH","OBJECT_ID":"2021-082W","EPOCH":"2022-05-22T22:00:01.999584","INCLINATION":"70.0016","ARG_OF_PERICENTER":"279.8913","MEAN_ELEMENT_THEORY":"SGP4","LAUNCH_DATE":"2021-09-14","OBJECT_TYPE":"PAYLOAD","ECCENTRICITY":"0.00032230","PERIOD":"96.109","MEAN_MOTION_DDOT":"0.0000000000000","RA_OF_ASC_NODE":"190.9910","EPHEMERIS_TYPE":"0","RCS_SIZE":"LARGE","FILE":"3459268","REV_AT_EPOCH":"130","MEAN_MOTION_DOT":"0.00034894","COUNTRY_CODE":"US","TLE_LINE2":"2 49150  70.0016 190.9910 0003223 279.8913 233.6984 14.98299759  1305","PERIAPSIS":"569.911","REF_FRAME":"TEME","CLASSIFICATION_TYPE":"U"},{"ARG_OF_PERICENTER":"277.0062","EPOCH":"2022-05-22T22:00:01.999584","INCLINATION":"69.9999","OBJECT_TYPE":"PAYLOAD","PERIOD":"96.002","MEAN_MOTION_DDOT":"0.0000000000000","ECCENTRICITY":"0.00031830","LAUNCH_DATE":"2021-09-14","MEAN_ELEMENT_THEORY":"SGP4","COUNTRY_CODE":"US","TLE_LINE2":"2 49151  69.9999 150.1669 0003183 277.0062 202.8710 14.99966906  1303","RCS_SIZE":"LARGE","REV_AT_EPOCH":"130","FILE":"3459268","MEAN_MOTION_DOT":"-0.00727316","EPHEMERIS_TYPE":"0","RA_OF_ASC_NODE":"150.1669","CLASSIFICATION_TYPE":"U","REF_FRAME":"TEME","PERIAPSIS":"564.790","SEMIMAJOR_AXIS":"6945.135","ELEMENT_SET_NO":"999","APOAPSIS":"569.211","DECAY_DATE":null,"BSTAR":"-0.06220100000000","MEAN_ANOMALY":"202.8710","OBJECT_NAME":"STARLINK-3102","MEAN_MOTION":"14.99966906","TIME_SYSTEM":"UTC","NORAD_CAT_ID":"49151","TLE_LINE1":"1 49151U 21082X   22142.91668981 -.00727316  00000-0 -62201-1 0  9992","SITE":"AFWTR","OBJECT_ID":"2021-082X","CENTER_NAME":"EARTH","GP_ID":"204283643"},{"MEAN_MOTION":"15.01540996","NORAD_CAT_ID":"49152","TIME_SYSTEM":"UTC","SEMIMAJOR_AXIS":"6940.281","ELEMENT_SET_NO":"999","DECAY_DATE":null,"BSTAR":"0.00454300000000","APOAPSIS":"564.292","OBJECT_NAME":"STARLINK-3081","MEAN_ANOMALY":"307.9036","OBJECT_ID":"2021-082Y","GP_ID":"204281899","CENTER_NAME":"EARTH","SITE":"AFWTR","TLE_LINE1":"1 49152U 21082Y   22142.91668981  .00059343  00000-0  45430-2 0  9995","LAUNCH_DATE":"2021-09-14","OBJECT_TYPE":"PAYLOAD","ECCENTRICITY":"0.00030920","PERIOD":"95.901","MEAN_MOTION_DDOT":"0.0000000000000","MEAN_ELEMENT_THEORY":"SGP4","ARG_OF_PERICENTER":"276.8145","EPOCH":"2022-05-22T22:00:01.999584","INCLINATION":"69.9994","CLASSIFICATION_TYPE":"U","REF_FRAME":"TEME","PERIAPSIS":"560.000","RCS_SIZE":"LARGE","FILE":"3459268","REV_AT_EPOCH":"130","MEAN_MOTION_DOT":"0.00059343","COUNTRY_CODE":"US","TLE_LINE2":"2 49152  69.9994 150.1658 0003092 276.8145 307.9036 15.01540996  1304","RA_OF_ASC_NODE":"150.1658","EPHEMERIS_TYPE":"0"}];
